SL-8 R/B                
1 11574U 79089B   26069.23102249  .00000345  00000+0  11220-3 0  9997
2 11574  74.0667  90.0415 0017158 262.6507  97.2699 14.42351253436183
SL-14 R/B               
1 11672U 80005B   26069.13034980  .00000659  00000+0  64127-4 0  9994
2 11672  82.5144 306.8184 0016218 156.8608 203.3345 14.90930937476557
SL-8 R/B                
1 12139U 81003B   26069.06698317  .00021828  00000+0  55974-3 0  9994
2 12139  82.9385 289.6746 0262078 177.3345 182.9362 15.10990524314735
SL-3 R/B                
1 12465U 81046B   26069.30359311  .00014518  00000+0  33729-3 0  9990
2 12465  81.2299 289.0069 0019501  20.2150 339.9861 15.42014699438523
SL-3 R/B                
1 12904U 81103B   26069.23268541  .00007038  00000+0  31215-3 0  9995
2 12904  81.1586 212.7948 0012416 285.0840  74.9017 15.21385055973317
SL-3 R/B                
1 13068U 82013B   26069.24052842  .00005753  00000+0  24895-3 0  9992
2 13068  81.1762 160.1251 0022657 175.6990 184.4442 15.22026031404434
SL-3 R/B                
1 13154U 82039B   26069.25316883  .00003595  00000+0  21717-3 0  9997
2 13154  81.1582 215.3120 0029722 322.6630  37.2529 15.10086203381724
SL-3 R/B                
1 13403U 82079B   26069.32311232  .00008526  00000+0  33950-3 0  9990
2 13403  81.1480 192.3291 0025048 162.7452 197.4639 15.24813483377799
SL-14 R/B               
1 13553U 82092B   26069.24857394  .00000551  00000+0  59104-4 0  9996
2 13553  82.5694 140.8769 0018979 301.5616 115.7311 14.86666977329018
SL-3 R/B                
1 13819U 83010B   26069.27864820  .00021396  00000+0  42916-3 0  9999
2 13819  81.1059   1.5253 0017933  49.1445 311.1350 15.46382912358038
SL-3 R/B                
1 14208U 83075B   26069.20745175  .00013876  00000+0  36563-3 0  9992
2 14208  97.6146  73.8042 0020165 223.9266 136.0376 15.38433317330233
COSMOS 1536             
1 14699U 84013A   26069.11391701  .00007227  00000+0  29800-3 0  9990
2 14699  82.5429 107.4289 0012458 281.6067  78.3771 15.23830686272682
SL-14 R/B               
1 14820U 84027B   26068.96249521  .00000644  00000+0  70784-4 0  9999
2 14820  82.5387 244.7567 0017328 336.9053  23.1383 14.85976757247670
SL-8 R/B                
1 15483U 85006B   26069.01646800  .00000364  00000+0  12918-3 0  9994
2 15483  74.0432 260.5471 0018431 178.3119 297.6652 14.37783120154075
SL-12 R/B(2)            
1 15772U 85042D   26069.33352863  .00000060  00000+0  48291-4 0  9990
2 15772  71.1062  86.3682 0033199 127.0798 325.9788 14.21982513114489
SL-14 R/B               
1 15945U 85069B   26069.28378107  .00000726  00000+0  79293-4 0  9999
2 15945  82.5287  24.3742 0018527 185.7129 174.3879 14.86434114172922
SL-16 R/B               
1 16182U 85097B   26069.26837749 -.00000199  00000+0 -75934-4 0  9998
2 16182  71.0027 139.3363 0009907 259.0861 158.5630 14.16598679 87314
